start=new Date('2023-03-25T00:00:00.000Z').valueOf();
sats=[{"EPOCH":"2023-03-24T16:01:09.892704","ECCENTRICITY":"0.00012970","OBJECT_TYPE":"PAYLOAD","OBJECT_ID":"2022-049X","SEMIMAJOR_AXIS":"6917.764","RCS_SIZE":"LARGE","COUNTRY_CODE":"US","REF_FRAME":"TEME","NORAD_CAT_ID":"52472","REV_AT_EPOCH":"4905","MEAN_MOTION_DDOT":"0.0000000000000","FILE":"3870109","APOAPSIS":"540.527","RA_OF_ASC_NODE":"232.0195","CENTER_NAME":"EARTH","CLASSIFICATION_TYPE":"U","EPHEMERIS_TYPE":"0","MEAN_MOTION":"15.08877965","MEAN_ELEMENT_THEORY":"SGP4","ELEMENT_SET_NO":"999","TLE_LINE1":"1 52472U 22049X   23083.66747561  .00006214  00000-0  40775-3 0  9994","LAUNCH_DATE":"2022-05-06","SITE":"AFETR","GP_ID":"228823278","INCLINATION":"53.2172","OBJECT_NAME":"STARLINK-3881","BSTAR":"0.00040775000000","ARG_OF_PERICENTER":"95.3457","DECAY_DATE":null,"PERIAPSIS":"538.732","MEAN_MOTION_DOT":"0.00006214","TLE_LINE2":"2 52472  53.2172 232.0195 0001297  95.3457 264.7683 15.08877965 49056","MEAN_ANOMALY":"264.7683","PERIOD":"95.435","TIME_SYSTEM":"UTC"},{"EPHEMERIS_TYPE":"0","MEAN_MOTION":"15.08896161","MEAN_ELEMENT_THEORY":"SGP4","ELEMENT_SET_NO":"999","TLE_LINE1":"1 52473U 22049Y   23083.67484892  .00024257  00000-0  15346-2 0  9993","CENTER_NAME":"EARTH","CLASSIFICATION_TYPE":"U","REF_FRAME":"TEME","NORAD_CAT_ID":"52473","REV_AT_EPOCH":"4905","MEAN_MOTION_DDOT":"0.0000000000000","FILE":"3870109","RA_OF_ASC_NODE":"231.9853","APOAPSIS":"539.989","EPOCH":"2023-03-24T16:11:46.946688","ECCENTRICITY":"0.00006000","OBJECT_TYPE":"PAYLOAD","OBJECT_ID":"2022-049Y","SEMIMAJOR_AXIS":"6917.709","RCS_SIZE":"LARGE","COUNTRY_CODE":"US","TIME_SYSTEM":"UTC","MEAN_MOTION_DOT":"0.00024257","PERIAPSIS":"539.159","TLE_LINE2":"2 52473  53.2135 231.9853 0000600  78.2340 281.8719 15.08896161 49052","MEAN_ANOMALY":"281.8719","PERIOD":"95.434","DECAY_DATE":null,"ARG_OF_PERICENTER":"78.2340","LAUNCH_DATE":"2022-05-06","SITE":"AFETR","INCLINATION":"53.2135","GP_ID":"228824529","OBJECT_NAME":"STARLINK-3879","BSTAR":"0.00153460000000"},{"PERIOD":"95.433","MEAN_ANOMALY":"257.6302","PERIAPSIS":"538.704","MEAN_MOTION_DOT":"0.00028820","TLE_LINE2":"2 52474  53.2162 221.9366 0001178 102.4822 257.6302 15.08914173 49195","TIME_SYSTEM":"UTC","BSTAR":"0.00181780000000","GP_ID":"228824274","OBJECT_NAME":"STARLINK-3855","INCLINATION":"53.2162","LAUNCH_DATE":"2022-05-06","SITE":"AFETR","DECAY_DATE":null,"ARG_OF_PERICENTER":"102.4822","CLASSIFICATION_TYPE":"U","CENTER_NAME":"EARTH","TLE_LINE1":"1 52474U 22049Z   23083.68776606  .00028820  00000-0  18178-2 0  9998","ELEMENT_SET_NO":"999","MEAN_ELEMENT_THEORY":"SGP4","EPHEMERIS_TYPE":"0","MEAN_MOTION":"15.08914173","COUNTRY_CODE":"US","SEMIMAJOR_AXIS":"6917.654","RCS_SIZE":"LARGE","OBJECT_TYPE":"PAYLOAD","OBJECT_ID":"2022-049Z","EPOCH":"2023-03-24T16:30:22.987584","ECCENTRICITY":"0.00011780","RA_OF_ASC_NODE":"221.9366","APOAPSIS":"540.334","FILE":"3870109","MEAN_MOTION_DDOT":"0.0000000000000","REV_AT_EPOCH":"4919","REF_FRAME":"TEME","NORAD_CAT_ID":"52474"},{"TIME_SYSTEM":"UTC","MEAN_MOTION_DOT":"0.00012579","PERIAPSIS":"538.851","TLE_LINE2":"2 52475  53.2140 232.0149 0001116  79.7043 280.4075 15.08879912 49054","MEAN_ANOMALY":"280.4075","PERIOD":"95.435","ARG_OF_PERICENTER":"79.7043","DECAY_DATE":null,"LAUNCH_DATE":"2022-05-06","SITE":"AFETR","GP_ID":"228823028","INCLINATION":"53.2140","OBJECT_NAME":"STARLINK-3882","BSTAR":"0.00080614000000","EPHEMERIS_TYPE":"0","MEAN_MOTION":"15.08879912","ELEMENT_SET_NO":"999","MEAN_ELEMENT_THEORY":"SGP4","TLE_LINE1":"1 52475U 22049AA  23083.66845208  .00012579  00000-0  80614-3 0  9991","CENTER_NAME":"EARTH","CLASSIFICATION_TYPE":"U","REF_FRAME":"TEME","NORAD_CAT_ID":"52475","MEAN_MOTION_DDOT":"0.0000000000000","REV_AT_EPOCH":"4905","FILE":"3870109","RA_OF_ASC_NODE":"232.0149","APOAPSIS":"540.395","EPOCH":"2023-03-24T16:02:34.259712","ECCENTRICITY":"0.00011160","OBJECT_TYPE":"PAYLOAD","OBJECT_ID":"2022-049AA","RCS_SIZE":"LARGE","SEMIMAJOR_AXIS":"6917.758","COUNTRY_CODE":"US"},{"CENTER_NAME":"EARTH","CLASSIFICATION_TYPE":"U","EPHEMERIS_TYPE":"0","MEAN_MOTION":"15.08891190","TLE_LINE1":"1 52476U 22049AB  23083.68408036  .00013015  00000-0  83315-3 0  9995","MEAN_ELEMENT_THEORY":"SGP4","ELEMENT_SET_NO":"999","OBJECT_ID":"2022-049AB","OBJECT_TYPE":"PAYLOAD","ECCENTRICITY":"0.00013410","EPOCH":"2023-03-24T16:25:04.543104","COUNTRY_CODE":"US","RCS_SIZE":"LARGE","SEMIMAJOR_AXIS":"6917.724","MEAN_MOTION_DDOT":"0.0000000000000","REV_AT_EPOCH":"5043","NORAD_CAT_ID":"52476","REF_FRAME":"TEME","APOAPSIS":"540.517","RA_OF_ASC_NODE":"221.9520","FILE":"3870109","MEAN_ANOMALY":"267.3732","TLE_LINE2":"2 52476  53.2161 221.9520 0001341  92.7414 267.3732 15.08891190 50435","MEAN_MOTION_DOT":"0.00013015","PERIAPSIS":"538.661","PERIOD":"95.434","TIME_SYSTEM":"UTC","SITE":"AFETR","LAUNCH_DATE":"2022-05-06","BSTAR":"0.00083315000000","OBJECT_NAME":"STARLINK-3835","GP_ID":"228823778","INCLINATION":"53.2161","DECAY_DATE":null,"ARG_OF_PERICENTER":"92.7414"},{"EPHEMERIS_TYPE":"0","MEAN_MOTION":"15.08888178","TLE_LINE1":"1 52477U 22049AC  23083.88922120  .00026046  00000-0  16464-2 0  9991","MEAN_ELEMENT_THEORY":"SGP4","ELEMENT_SET_NO":"999","CENTER_NAME":"EARTH","CLASSIFICATION_TYPE":"U","MEAN_MOTION_DDOT":"0.0000000000000","REV_AT_EPOCH":"5046","NORAD_CAT_ID":"52477","REF_FRAME":"TEME","RA_OF_ASC_NODE":"221.0224","APOAPSIS":"540.617","FILE":"3870109","OBJECT_ID":"2022-049AC","OBJECT_TYPE":"PAYLOAD","ECCENTRICITY":"0.00014730","EPOCH":"2023-03-24T21:20:28.711680","COUNTRY_CODE":"US","SEMIMAJOR_AXIS":"6917.733","RCS_SIZE":"LARGE","TIME_SYSTEM":"UTC","MEAN_ANOMALY":"271.6950","TLE_LINE2":"2 52477  53.2155 221.0224 0001473  88.4210 271.6950 15.08888178 50468","MEAN_MOTION_DOT":"0.00026046","PERIAPSIS":"538.579","PERIOD":"95.435","ARG_OF_PERICENTER":"88.4210","DECAY_DATE":null,"SITE":"AFETR","LAUNCH_DATE":"2022-05-06","BSTAR":"0.00164640000000","OBJECT_NAME":"STARLINK-3860","GP_ID":"228824030","INCLINATION":"53.2155"},{"OBJECT_NAME":"STARLINK-3825","GP_ID":"228824773","INCLINATION":"53.2167","BSTAR":"0.00028919000000","SITE":"AFETR","LAUNCH_DATE":"2022-05-06","DECAY_DATE":null,"ARG_OF_PERICENTER":"77.2578","PERIOD":"95.437","TLE_LINE2":"2 52478  53.2167 231.7473 0001249  77.2578 282.8553 15.08855679 50306","PERIAPSIS":"538.833","MEAN_MOTION_DOT":"0.00004319","MEAN_ANOMALY":"282.8553","TIME_SYSTEM":"UTC","RCS_SIZE":"LARGE","SEMIMAJOR_AXIS":"6917.832","COUNTRY_CODE":"US","ECCENTRICITY":"0.00012490","EPOCH":"2023-03-24T17:25:59.880864","OBJECT_ID":"2022-049AD","OBJECT_TYPE":"PAYLOAD","FILE":"3870109","APOAPSIS":"540.562","RA_OF_ASC_NODE":"231.7473","NORAD_CAT_ID":"52478","REF_FRAME":"TEME","REV_AT_EPOCH":"5030","MEAN_MOTION_DDOT":"0.0000000000000","CLASSIFICATION_TYPE":"U","CENTER_NAME":"EARTH","MEAN_ELEMENT_THEORY":"SGP4","ELEMENT_SET_NO":"999","TLE_LINE1":"1 52478U 22049AD  23083.72638751  .00004319  00000-0  28919-3 0  9997","EPHEMERIS_TYPE":"0","MEAN_MOTION":"15.08855679"},{"CLASSIFICATION_TYPE":"U","CENTER_NAME":"EARTH","TLE_LINE1":"1 52479U 22049AE  23083.87447234  .00047193  00000-0  29549-2 0  9994","MEAN_ELEMENT_THEORY":"SGP4","ELEMENT_SET_NO":"999","MEAN_MOTION":"15.08947071","EPHEMERIS_TYPE":"0","COUNTRY_CODE":"US","RCS_SIZE":"LARGE","SEMIMAJOR_AXIS":"6917.553","OBJECT_TYPE":"PAYLOAD","OBJECT_ID":"2022-049AE","EPOCH":"2023-03-24T20:59:14.410176","ECCENTRICITY":"0.00011980","APOAPSIS":"540.247","RA_OF_ASC_NODE":"221.0881","FILE":"3870109","REV_AT_EPOCH":"5046","MEAN_MOTION_DDOT":"0.0000000000000","REF_FRAME":"TEME","NORAD_CAT_ID":"52479","PERIOD":"95.431","MEAN_ANOMALY":"270.3052","MEAN_MOTION_DOT":"0.00047193","PERIAPSIS":"538.589","TLE_LINE2":"2 52479  53.2162 221.0881 0001198  89.8077 270.3052 15.08947071 50464","TIME_SYSTEM":"UTC","BSTAR":"0.00295490000000","GP_ID":"228823528","OBJECT_NAME":"STARLINK-3878","INCLINATION":"53.2162","LAUNCH_DATE":"2022-05-06","SITE":"AFETR","ARG_OF_PERICENTER":"89.8077","DECAY_DATE":null},{"OBJECT_NAME":"STARLINK-3839","GP_ID":"228823279","INCLINATION":"53.2152","BSTAR":"-0.00034130000000","SITE":"AFETR","LAUNCH_DATE":"2022-05-06","DECAY_DATE":null,"ARG_OF_PERICENTER":"87.0994","PERIOD":"95.439","TLE_LINE2":"2 52480  53.2152 231.7720 0001190  87.0994 273.0134 15.08823264 49067","PERIAPSIS":"538.973","MEAN_MOTION_DOT":"-0.00005713","MEAN_ANOMALY":"273.0134","TIME_SYSTEM":"UTC","SEMIMAJOR_AXIS":"6917.932","RCS_SIZE":"LARGE","COUNTRY_CODE":"US","ECCENTRICITY":"0.00011900","EPOCH":"2023-03-24T17:20:42.099072","OBJECT_ID":"2022-049AF","OBJECT_TYPE":"PAYLOAD","FILE":"3870109","APOAPSIS":"540.620","RA_OF_ASC_NODE":"231.7720","NORAD_CAT_ID":"52480","REF_FRAME":"TEME","MEAN_MOTION_DDOT":"0.0000000000000","REV_AT_EPOCH":"4906","CLASSIFICATION_TYPE":"U","CENTER_NAME":"EARTH","MEAN_ELEMENT_THEORY":"SGP4","ELEMENT_SET_NO":"999","TLE_LINE1":"1 52480U 22049AF  23083.72270948 -.00005713  00000-0 -34130-3 0  9993","MEAN_MOTION":"15.08823264","EPHEMERIS_TYPE":"0"},{"CENTER_NAME":"EARTH","CLASSIFICATION_TYPE":"U","EPHEMERIS_TYPE":"0","MEAN_MOTION":"15.08841912","TLE_LINE1":"1 52481U 22049AG  23083.66383860  .00001819  00000-0  13237-3 0  9991","ELEMENT_SET_NO":"999","MEAN_ELEMENT_THEORY":"SGP4","OBJECT_ID":"2022-049AG","OBJECT_TYPE":"PAYLOAD","ECCENTRICITY":"0.00014000","EPOCH":"2023-03-24T15:55:55.655040","COUNTRY_CODE":"US","RCS_SIZE":"LARGE","SEMIMAJOR_AXIS":"6917.875","REV_AT_EPOCH":"5029","MEAN_MOTION_DDOT":"0.0000000000000","NORAD_CAT_ID":"52481","REF_FRAME":"TEME","APOAPSIS":"540.708","RA_OF_ASC_NODE":"232.0393","FILE":"3870109","MEAN_ANOMALY":"306.9141","TLE_LINE2":"2 52481  53.2155 232.0393 0001400  53.1980 306.9141 15.08841912 50295","MEAN_MOTION_DOT":"0.00001819","PERIAPSIS":"538.771","PERIOD":"95.437","TIME_SYSTEM":"UTC","SITE":"AFETR","LAUNCH_DATE":"2022-05-06","BSTAR":"0.00013237000000","OBJECT_NAME":"STARLINK-3842","GP_ID":"228824530","INCLINATION":"53.2155","ARG_OF_PERICENTER":"53.1980","DECAY_DATE":null}];
